{
 "generated_at": "2026-07-23T07:33:13Z",
 "sources": [
  {
   "name": "CelesTrak",
   "url": "https://celestrak.org/NORAD/elements/",
   "license": "frei verfügbar; Attribution. Ursprünglich USSPACECOM/Space-Track."
  },
  {
   "name": "GCAT (J. McDowell, planet4589.org)",
   "url": "https://planet4589.org/space/gcat/",
   "license": "CC-BY 4.0"
  }
 ],
 "satellites": [
  {
   "norad": 40275,
   "name": "YAOGAN-22",
   "intl": "2014-063A",
   "group": "resource",
   "gcat": {
    "class": null,
    "category": null,
    "owner": null,
    "state": null
   },
   "omm": {
    "OBJECT_NAME": "YAOGAN-22",
    "OBJECT_ID": "2014-063A",
    "EPOCH": "2026-07-22T20:29:12.820704",
    "MEAN_MOTION": 13.15531726,
    "ECCENTRICITY": 0.00069127,
    "INCLINATION": 100.7772,
    "RA_OF_ASC_NODE": 355.7263,
    "ARG_OF_PERICENTER": 109.5155,
    "MEAN_ANOMALY": 250.6703,
    "EPHEMERIS_TYPE": 0,
    "CLASSIFICATION_TYPE": "U",
    "NORAD_CAT_ID": 40275,
    "ELEMENT_SET_NO": 999,
    "REV_AT_EPOCH": 56450,
    "BSTAR": 0.000083718394,
    "MEAN_MOTION_DOT": -1.5e-7,
    "MEAN_MOTION_DDOT": 0
   }
  },
  {
   "norad": 40310,
   "name": "YAOGAN-24",
   "intl": "2014-072A",
   "group": "resource",
   "gcat": {
    "class": "D",
    "category": "IMG",
    "owner": "ZZB",
    "state": "CN"
   },
   "omm": {
    "OBJECT_NAME": "YAOGAN-24",
    "OBJECT_ID": "2014-072A",
    "EPOCH": "2026-07-22T22:34:20.967744",
    "MEAN_MOTION": 14.76124978,
    "ECCENTRICITY": 0.00151988,
    "INCLINATION": 98.1534,
    "RA_OF_ASC_NODE": 341.5851,
    "ARG_OF_PERICENTER": 145.6477,
    "MEAN_ANOMALY": 214.5718,
    "EPHEMERIS_TYPE": 0,
    "CLASSIFICATION_TYPE": "U",
    "NORAD_CAT_ID": 40310,
    "ELEMENT_SET_NO": 999,
    "REV_AT_EPOCH": 62899,
    "BSTAR": 0.00010100499,
    "MEAN_MOTION_DOT": 0.00000645,
    "MEAN_MOTION_DDOT": 0
   }
  },
  {
   "norad": 40362,
   "name": "YAOGAN-26",
   "intl": "2014-088A",
   "group": "resource",
   "gcat": {
    "class": "D",
    "category": "IMG",
    "owner": "ZZB",
    "state": "CN"
   },
   "omm": {
    "OBJECT_NAME": "YAOGAN-26",
    "OBJECT_ID": "2014-088A",
    "EPOCH": "2026-07-22T22:39:28.212192",
    "MEAN_MOTION": 15.48695386,
    "ECCENTRICITY": 0.00010041,
    "INCLINATION": 97.0658,
    "RA_OF_ASC_NODE": 203.3517,
    "ARG_OF_PERICENTER": 259.5468,
    "MEAN_ANOMALY": 100.567,
    "EPHEMERIS_TYPE": 0,
    "CLASSIFICATION_TYPE": "U",
    "NORAD_CAT_ID": 40362,
    "ELEMENT_SET_NO": 999,
    "REV_AT_EPOCH": 64323,
    "BSTAR": 0.00060611864,
    "MEAN_MOTION_DOT": 0.00032448,
    "MEAN_MOTION_DDOT": 0
   }
  },
  {
   "norad": 40878,
   "name": "YAOGAN-27",
   "intl": "2015-040A",
   "group": "resource",
   "gcat": {
    "class": "D",
    "category": "IMG",
    "owner": "ZZB",
    "state": "CN"
   },
   "omm": {
    "OBJECT_NAME": "YAOGAN-27",
    "OBJECT_ID": "2015-040A",
    "EPOCH": "2026-07-22T23:40:23.569824",
    "MEAN_MOTION": 13.16072443,
    "ECCENTRICITY": 0.0008792,
    "INCLINATION": 100.1184,
    "RA_OF_ASC_NODE": 188.8189,
    "ARG_OF_PERICENTER": 128.247,
    "MEAN_ANOMALY": 231.9436,
    "EPHEMERIS_TYPE": 0,
    "CLASSIFICATION_TYPE": "U",
    "NORAD_CAT_ID": 40878,
    "ELEMENT_SET_NO": 999,
    "REV_AT_EPOCH": 52237,
    "BSTAR": -0.00025766126,
    "MEAN_MOTION_DOT": -0.0000014,
    "MEAN_MOTION_DDOT": 0
   }
  },
  {
   "norad": 41026,
   "name": "YAOGAN-28",
   "intl": "2015-064A",
   "group": "resource",
   "gcat": {
    "class": "D",
    "category": "IMG",
    "owner": "ZZB",
    "state": "CN"
   },
   "omm": {
    "OBJECT_NAME": "YAOGAN-28",
    "OBJECT_ID": "2015-064A",
    "EPOCH": "2026-07-22T22:56:58.504416",
    "MEAN_MOTION": 15.27833333,
    "ECCENTRICITY": 0.00118674,
    "INCLINATION": 97.3113,
    "RA_OF_ASC_NODE": 341.5085,
    "ARG_OF_PERICENTER": 68.976,
    "MEAN_ANOMALY": 291.2747,
    "EPHEMERIS_TYPE": 0,
    "CLASSIFICATION_TYPE": "U",
    "NORAD_CAT_ID": 41026,
    "ELEMENT_SET_NO": 999,
    "REV_AT_EPOCH": 59614,
    "BSTAR": 0.00026831892,
    "MEAN_MOTION_DOT": 0.00007234,
    "MEAN_MOTION_DDOT": 0
   }
  },
  {
   "norad": 41038,
   "name": "YAOGAN-29",
   "intl": "2015-069A",
   "group": "resource",
   "gcat": {
    "class": "D",
    "category": "IMG-R",
    "owner": "ZZB",
    "state": "CN"
   },
   "omm": {
    "OBJECT_NAME": "YAOGAN-29",
    "OBJECT_ID": "2015-069A",
    "EPOCH": "2026-07-23T00:04:21.789408",
    "MEAN_MOTION": 14.83109876,
    "ECCENTRICITY": 0.00000958,
    "INCLINATION": 98.0026,
    "RA_OF_ASC_NODE": 232.6902,
    "ARG_OF_PERICENTER": 96.5568,
    "MEAN_ANOMALY": 263.5656,
    "EPHEMERIS_TYPE": 0,
    "CLASSIFICATION_TYPE": "U",
    "NORAD_CAT_ID": 41038,
    "ELEMENT_SET_NO": 999,
    "REV_AT_EPOCH": 57593,
    "BSTAR": 2.07298e-7,
    "MEAN_MOTION_DOT": -5.2e-7,
    "MEAN_MOTION_DDOT": 0
   }
  },
  {
   "norad": 32289,
   "name": "YAOGAN-3",
   "intl": "2007-055A",
   "group": "resource",
   "gcat": {
    "class": null,
    "category": null,
    "owner": null,
    "state": null
   },
   "omm": {
    "OBJECT_NAME": "YAOGAN-3",
    "OBJECT_ID": "2007-055A",
    "EPOCH": "2026-07-22T23:13:57.720288",
    "MEAN_MOTION": 14.90900907,
    "ECCENTRICITY": 0.00014893,
    "INCLINATION": 97.8147,
    "RA_OF_ASC_NODE": 233.4922,
    "ARG_OF_PERICENTER": 87.9111,
    "MEAN_ANOMALY": 272.2277,
    "EPHEMERIS_TYPE": 0,
    "CLASSIFICATION_TYPE": "U",
    "NORAD_CAT_ID": 32289,
    "ELEMENT_SET_NO": 999,
    "REV_AT_EPOCH": 1120,
    "BSTAR": 0.00019556348,
    "MEAN_MOTION_DOT": 0.00001873,
    "MEAN_MOTION_DDOT": 0
   }
  },
  {
   "norad": 33446,
   "name": "YAOGAN-4",
   "intl": "2008-061A",
   "group": "resource",
   "gcat": {
    "class": null,
    "category": null,
    "owner": null,
    "state": null
   },
   "omm": {
    "OBJECT_NAME": "YAOGAN-4",
    "OBJECT_ID": "2008-061A",
    "EPOCH": "2026-07-22T07:32:50.140608",
    "MEAN_MOTION": 14.83260998,
    "ECCENTRICITY": 0.00132819,
    "INCLINATION": 97.9302,
    "RA_OF_ASC_NODE": 136.5669,
    "ARG_OF_PERICENTER": 321.4364,
    "MEAN_ANOMALY": 38.5899,
    "EPHEMERIS_TYPE": 0,
    "CLASSIFICATION_TYPE": "U",
    "NORAD_CAT_ID": 33446,
    "ELEMENT_SET_NO": 999,
    "REV_AT_EPOCH": 95087,
    "BSTAR": 0.000099196094,
    "MEAN_MOTION_DOT": 0.00000758,
    "MEAN_MOTION_DDOT": 0
   }
  },
  {
   "norad": 36110,
   "name": "YAOGAN-7",
   "intl": "2009-069A",
   "group": "resource",
   "gcat": {
    "class": null,
    "category": null,
    "owner": null,
    "state": null
   },
   "omm": {
    "OBJECT_NAME": "YAOGAN-7",
    "OBJECT_ID": "2009-069A",
    "EPOCH": "2026-07-22T15:08:02.789376",
    "MEAN_MOTION": 14.78040201,
    "ECCENTRICITY": 0.00231809,
    "INCLINATION": 98.0023,
    "RA_OF_ASC_NODE": 89.271,
    "ARG_OF_PERICENTER": 286.1393,
    "MEAN_ANOMALY": 73.7266,
    "EPHEMERIS_TYPE": 0,
    "CLASSIFICATION_TYPE": "U",
    "NORAD_CAT_ID": 36110,
    "ELEMENT_SET_NO": 999,
    "REV_AT_EPOCH": 89486,
    "BSTAR": 0.000051407222,
    "MEAN_MOTION_DOT": 0.00000319,
    "MEAN_MOTION_DDOT": 0
   }
  },
  {
   "norad": 38038,
   "name": "ZIYUAN 1-02C (ZY 1-02C)",
   "intl": "2011-079A",
   "group": "resource",
   "gcat": {
    "class": null,
    "category": null,
    "owner": null,
    "state": null
   },
   "omm": {
    "OBJECT_NAME": "ZIYUAN 1-02C (ZY 1-02C)",
    "OBJECT_ID": "2011-079A",
    "EPOCH": "2026-07-22T23:39:30.253248",
    "MEAN_MOTION": 14.38239323,
    "ECCENTRICITY": 0.00061621,
    "INCLINATION": 98.4052,
    "RA_OF_ASC_NODE": 270.5433,
    "ARG_OF_PERICENTER": 188.9657,
    "MEAN_ANOMALY": 294.847,
    "EPHEMERIS_TYPE": 0,
    "CLASSIFICATION_TYPE": "U",
    "NORAD_CAT_ID": 38038,
    "ELEMENT_SET_NO": 999,
    "REV_AT_EPOCH": 76435,
    "BSTAR": 0.000056933494,
    "MEAN_MOTION_DOT": 0.0000013,
    "MEAN_MOTION_DDOT": 0
   }
  }
 ]
}
